start=new Date('2022-01-15T00:00:00.000Z').valueOf();
sats=[{"OBJECT_ID":"2020-012J","CENTER_NAME":"EARTH","MEAN_MOTION_DOT":"0.00001170","ARG_OF_PERICENTER":"63.0169","DECAY_DATE":null,"MEAN_ELEMENT_THEORY":"SGP4","LAUNCH_DATE":"2020-02-17","CLASSIFICATION_TYPE":"U","EPOCH":"2022-01-14T16:22:50.245536","MEAN_MOTION_DDOT":"0.0000000000000","SEMIMAJOR_AXIS":"6925.339","MEAN_MOTION":"15.06403267","REF_FRAME":"TEME","BSTAR":"0.00009743500000","COUNTRY_CODE":"US","TLE_LINE2":"2 45186  53.0558   7.7501 0001728  63.0169 297.0997 15.06403267106436","PERIAPSIS":"546.007","SITE":"AFETR","INCLINATION":"53.0558","RCS_SIZE":"LARGE","OBJECT_NAME":"STARLINK-1224","APOAPSIS":"548.400","OBJECT_TYPE":"PAYLOAD","TIME_SYSTEM":"UTC","TLE_LINE1":"1 45186U 20012J   22014.68252599  .00001170  00000-0  97435-4 0  9995","GP_ID":"193877617","PERIOD":"95.592","ELEMENT_SET_NO":"999","ECCENTRICITY":"0.00017280","FILE":"3273247","MEAN_ANOMALY":"297.0997","REV_AT_EPOCH":"10643","NORAD_CAT_ID":"45186","RA_OF_ASC_NODE":"7.7501","EPHEMERIS_TYPE":"0"},{"BSTAR":"0.00006617300000","COUNTRY_CODE":"US","REF_FRAME":"TEME","MEAN_MOTION":"15.06400804","RCS_SIZE":"LARGE","INCLINATION":"53.0552","SITE":"AFETR","PERIAPSIS":"546.078","TLE_LINE2":"2 45187  53.0552   7.7270 0001636  66.7088 293.4073 15.06400804106486","LAUNCH_DATE":"2020-02-17","MEAN_ELEMENT_THEORY":"SGP4","DECAY_DATE":null,"MEAN_MOTION_DOT":"0.00000704","ARG_OF_PERICENTER":"66.7088","CENTER_NAME":"EARTH","OBJECT_ID":"2020-012K","MEAN_MOTION_DDOT":"0.0000000000000","SEMIMAJOR_AXIS":"6925.346","EPOCH":"2022-01-14T16:28:08.938848","CLASSIFICATION_TYPE":"U","ECCENTRICITY":"0.00016360","ELEMENT_SET_NO":"999","EPHEMERIS_TYPE":"0","NORAD_CAT_ID":"45187","RA_OF_ASC_NODE":"7.7270","FILE":"3273247","MEAN_ANOMALY":"293.4073","REV_AT_EPOCH":"10648","APOAPSIS":"548.344","OBJECT_TYPE":"PAYLOAD","OBJECT_NAME":"STARLINK-1225","PERIOD":"95.592","GP_ID":"193877868","TLE_LINE1":"1 45187U 20012K   22014.68621457  .00000704  00000-0  66173-4 0  9996","TIME_SYSTEM":"UTC"},{"NORAD_CAT_ID":"45188","RA_OF_ASC_NODE":"328.2072","FILE":"3272874","MEAN_ANOMALY":"288.0969","REV_AT_EPOCH":"10698","EPHEMERIS_TYPE":"0","ELEMENT_SET_NO":"999","ECCENTRICITY":"0.00017940","TLE_LINE1":"1 45188U 20012L   22014.58300770  .00000911  00000-0  80074-4 0  9994","GP_ID":"193844998","TIME_SYSTEM":"UTC","PERIOD":"95.592","OBJECT_NAME":"STARLINK-1228","APOAPSIS":"548.448","OBJECT_TYPE":"PAYLOAD","PERIAPSIS":"545.963","TLE_LINE2":"2 45188  53.0568 328.2072 0001794  72.0215 288.0969 15.06402564106986","RCS_SIZE":"LARGE","INCLINATION":"53.0568","SITE":"AFETR","REF_FRAME":"TEME","MEAN_MOTION":"15.06402564","COUNTRY_CODE":"US","BSTAR":"0.00008007400000","MEAN_MOTION_DDOT":"0.0000000000000","SEMIMAJOR_AXIS":"6925.341","EPOCH":"2022-01-14T13:59:31.865280","CLASSIFICATION_TYPE":"U","MEAN_MOTION_DOT":"0.00000911","ARG_OF_PERICENTER":"72.0215","CENTER_NAME":"EARTH","OBJECT_ID":"2020-012L","LAUNCH_DATE":"2020-02-17","MEAN_ELEMENT_THEORY":"SGP4","DECAY_DATE":null},{"TLE_LINE2":"2 45189  53.0562   7.7196 0001780  59.8560 300.2605 15.06405801103717","PERIAPSIS":"545.963","SITE":"AFETR","INCLINATION":"53.0562","RCS_SIZE":"LARGE","MEAN_MOTION":"15.06405801","REF_FRAME":"TEME","BSTAR":"0.00006769700000","COUNTRY_CODE":"US","EPOCH":"2022-01-14T16:33:27.374688","CLASSIFICATION_TYPE":"U","MEAN_MOTION_DDOT":"0.0000000000000","SEMIMAJOR_AXIS":"6925.331","OBJECT_ID":"2020-012M","ARG_OF_PERICENTER":"59.8560","MEAN_MOTION_DOT":"0.00000727","CENTER_NAME":"EARTH","MEAN_ELEMENT_THEORY":"SGP4","DECAY_DATE":null,"LAUNCH_DATE":"2020-02-17","MEAN_ANOMALY":"300.2605","FILE":"3273247","REV_AT_EPOCH":"10371","RA_OF_ASC_NODE":"7.7196","NORAD_CAT_ID":"45189","EPHEMERIS_TYPE":"0","ELEMENT_SET_NO":"999","ECCENTRICITY":"0.00017800","TIME_SYSTEM":"UTC","GP_ID":"193876866","TLE_LINE1":"1 45189U 20012M   22014.68990017  .00000727  00000-0  67697-4 0  9996","PERIOD":"95.592","OBJECT_NAME":"STARLINK-1230","OBJECT_TYPE":"PAYLOAD","APOAPSIS":"548.428"},{"OBJECT_TYPE":"PAYLOAD","APOAPSIS":"548.464","OBJECT_NAME":"STARLINK-1234","PERIOD":"95.592","GP_ID":"193851596","TLE_LINE1":"1 45190U 20012N   22014.57563422  .00002275  00000-0  17157-3 0  9997","TIME_SYSTEM":"UTC","ECCENTRICITY":"0.00018130","ELEMENT_SET_NO":"999","EPHEMERIS_TYPE":"0","RA_OF_ASC_NODE":"328.2352","NORAD_CAT_ID":"45190","MEAN_ANOMALY":"300.2104","FILE":"3273000","REV_AT_EPOCH":"10605","LAUNCH_DATE":"2020-02-17","DECAY_DATE":null,"MEAN_ELEMENT_THEORY":"SGP4","CENTER_NAME":"EARTH","MEAN_MOTION_DOT":"0.00002275","ARG_OF_PERICENTER":"59.9065","OBJECT_ID":"2020-012N","MEAN_MOTION_DDOT":"0.0000000000000","SEMIMAJOR_AXIS":"6925.344","CLASSIFICATION_TYPE":"U","EPOCH":"2022-01-14T13:48:54.796608","COUNTRY_CODE":"US","BSTAR":"0.00017157000000","REF_FRAME":"TEME","MEAN_MOTION":"15.06401596","RCS_SIZE":"LARGE","INCLINATION":"53.0557","SITE":"AFETR","PERIAPSIS":"545.953","TLE_LINE2":"2 45190  53.0557 328.2352 0001813  59.9065 300.2104 15.06401596106057"},{"RA_OF_ASC_NODE":"7.6825","NORAD_CAT_ID":"45191","FILE":"3273247","REV_AT_EPOCH":"10370","MEAN_ANOMALY":"297.5682","EPHEMERIS_TYPE":"0","ELEMENT_SET_NO":"999","ECCENTRICITY":"0.00015850","GP_ID":"193877369","TLE_LINE1":"1 45191U 20012P   22014.69727221  .00000792  00000-0  72040-4 0  9995","TIME_SYSTEM":"UTC","PERIOD":"95.592","OBJECT_NAME":"STARLINK-1236","OBJECT_TYPE":"PAYLOAD","APOAPSIS":"548.301","PERIAPSIS":"546.106","TLE_LINE2":"2 45191  53.0546   7.6825 0001585  62.5468 297.5682 15.06403345103704","RCS_SIZE":"LARGE","INCLINATION":"53.0546","SITE":"AFETR","REF_FRAME":"TEME","MEAN_MOTION":"15.06403345","COUNTRY_CODE":"US","BSTAR":"0.00007204000000","MEAN_MOTION_DDOT":"0.0000000000000","SEMIMAJOR_AXIS":"6925.338","EPOCH":"2022-01-14T16:44:04.318944","CLASSIFICATION_TYPE":"U","MEAN_MOTION_DOT":"0.00000792","ARG_OF_PERICENTER":"62.5468","CENTER_NAME":"EARTH","OBJECT_ID":"2020-012P","LAUNCH_DATE":"2020-02-17","MEAN_ELEMENT_THEORY":"SGP4","DECAY_DATE":null},{"ECCENTRICITY":"0.00015740","ELEMENT_SET_NO":"999","EPHEMERIS_TYPE":"0","REV_AT_EPOCH":"10653","FILE":"3273247","MEAN_ANOMALY":"306.2258","RA_OF_ASC_NODE":"6.6065","NORAD_CAT_ID":"45192","APOAPSIS":"548.322","OBJECT_TYPE":"PAYLOAD","OBJECT_NAME":"STARLINK-1237","PERIOD":"95.593","TIME_SYSTEM":"UTC","TLE_LINE1":"1 45192U 20012Q   22014.93686272  .00001559  00000-0  12357-3 0  9999","GP_ID":"193876117","COUNTRY_CODE":"US","BSTAR":"0.00012357000000","MEAN_MOTION":"15.06393886","REF_FRAME":"TEME","SITE":"AFETR","RCS_SIZE":"LARGE","INCLINATION":"53.0545","TLE_LINE2":"2 45192  53.0545   6.6065 0001574  53.8877 306.2258 15.06393886106533","PERIAPSIS":"546.142","MEAN_ELEMENT_THEORY":"SGP4","DECAY_DATE":null,"LAUNCH_DATE":"2020-02-17","OBJECT_ID":"2020-012Q","MEAN_MOTION_DOT":"0.00001559","ARG_OF_PERICENTER":"53.8877","CENTER_NAME":"EARTH","EPOCH":"2022-01-14T22:29:04.939008","CLASSIFICATION_TYPE":"U","MEAN_MOTION_DDOT":"0.0000000000000","SEMIMAJOR_AXIS":"6925.367"},{"ELEMENT_SET_NO":"999","ECCENTRICITY":"0.00017770","RA_OF_ASC_NODE":"8.7416","NORAD_CAT_ID":"45193","MEAN_ANOMALY":"297.1925","FILE":"3272874","REV_AT_EPOCH":"10640","EPHEMERIS_TYPE":"0","OBJECT_NAME":"STARLINK-1239","APOAPSIS":"548.424","OBJECT_TYPE":"PAYLOAD","TLE_LINE1":"1 45193U 20012R   22014.46137468  .00003152  00000-0  23038-3 0  9995","GP_ID":"193845252","TIME_SYSTEM":"UTC","PERIOD":"95.592","REF_FRAME":"TEME","MEAN_MOTION":"15.06406519","BSTAR":"0.00023038000000","COUNTRY_CODE":"US","PERIAPSIS":"545.963","TLE_LINE2":"2 45193  53.0558   8.7416 0001777  62.9245 297.1925 15.06406519106409","RCS_SIZE":"LARGE","INCLINATION":"53.0558","SITE":"AFETR","CENTER_NAME":"EARTH","MEAN_MOTION_DOT":"0.00003152","ARG_OF_PERICENTER":"62.9245","OBJECT_ID":"2020-012R","LAUNCH_DATE":"2020-02-17","DECAY_DATE":null,"MEAN_ELEMENT_THEORY":"SGP4","MEAN_MOTION_DDOT":"0.0000000000000","SEMIMAJOR_AXIS":"6925.329","CLASSIFICATION_TYPE":"U","EPOCH":"2022-01-14T11:04:22.772352"},{"ECCENTRICITY":"0.00017790","ELEMENT_SET_NO":"999","EPHEMERIS_TYPE":"0","NORAD_CAT_ID":"45194","RA_OF_ASC_NODE":"7.8373","REV_AT_EPOCH":"10638","FILE":"3273247","MEAN_ANOMALY":"297.6350","APOAPSIS":"548.450","OBJECT_TYPE":"PAYLOAD","OBJECT_NAME":"STARLINK-1240","PERIOD":"95.592","TLE_LINE1":"1 45194U 20012S   22014.66410526  .00000795  00000-0  72297-4 0  9999","GP_ID":"193877618","TIME_SYSTEM":"UTC","BSTAR":"0.00007229700000","COUNTRY_CODE":"US","REF_FRAME":"TEME","MEAN_MOTION":"15.06398535","RCS_SIZE":"LARGE","INCLINATION":"53.0553","SITE":"AFETR","PERIAPSIS":"545.986","TLE_LINE2":"2 45194  53.0553   7.8373 0001779  62.4820 297.6350 15.06398535106385","LAUNCH_DATE":"2020-02-17","MEAN_ELEMENT_THEORY":"SGP4","DECAY_DATE":null,"MEAN_MOTION_DOT":"0.00000795","ARG_OF_PERICENTER":"62.4820","CENTER_NAME":"EARTH","OBJECT_ID":"2020-012S","SEMIMAJOR_AXIS":"6925.353","MEAN_MOTION_DDOT":"0.0000000000000","EPOCH":"2022-01-14T15:56:18.694464","CLASSIFICATION_TYPE":"U"},{"MEAN_ELEMENT_THEORY":"SGP4","DECAY_DATE":null,"LAUNCH_DATE":"2020-02-17","OBJECT_ID":"2020-012T","MEAN_MOTION_DOT":"0.00006591","ARG_OF_PERICENTER":"59.4591","CENTER_NAME":"EARTH","EPOCH":"2022-01-14T09:23:32.499168","CLASSIFICATION_TYPE":"U","MEAN_MOTION_DDOT":"0.0000000000000","SEMIMAJOR_AXIS":"6925.319","COUNTRY_CODE":"US","BSTAR":"0.00046084000000","MEAN_MOTION":"15.06409552","REF_FRAME":"TEME","SITE":"AFETR","INCLINATION":"53.0541","RCS_SIZE":"LARGE","TLE_LINE2":"2 45195  53.0541   9.0548 0001679  59.4591 300.6564 15.06409552106442","PERIAPSIS":"546.022","APOAPSIS":"548.347","OBJECT_TYPE":"PAYLOAD","OBJECT_NAME":"STARLINK-1241","PERIOD":"95.592","TIME_SYSTEM":"UTC","TLE_LINE1":"1 45195U 20012T   22014.39134837  .00006591  00000-0  46084-3 0  9992","GP_ID":"193844753","ECCENTRICITY":"0.00016790","ELEMENT_SET_NO":"999","EPHEMERIS_TYPE":"0","MEAN_ANOMALY":"300.6564","FILE":"3272874","REV_AT_EPOCH":"10644","NORAD_CAT_ID":"45195","RA_OF_ASC_NODE":"9.0548"}];
